[{"OBJECT_NAME":"SKYSAT-C10","OBJECT_ID":"2017-068B","EPOCH":"2026-03-09T22:15:51.699744","MEAN_MOTION":15.3268588,"ECCENTRICITY":0.00010197,"INCLINATION":97.4337,"RA_OF_ASC_NODE":205.0399,"ARG_OF_PERICENTER":91.4285,"MEAN_ANOMALY":268.7074,"EPHEMERIS_TYPE":0,"CLASSIFICATION_TYPE":"U","NORAD_CAT_ID":42988,"ELEMENT_SET_NO":999,"REV_AT_EPOCH":46714,"BSTAR":0.00040981809,"MEAN_MOTION_DOT":0.00012865,"MEAN_MOTION_DDOT":0},{"OBJECT_NAME":"SL-14 R\/B","OBJECT_ID":"1991-086B","EPOCH":"2026-03-09T21:12:20.037600","MEAN_MOTION":11.96623945,"ECCENTRICITY":0.15622342,"INCLINATION":82.5616,"RA_OF_ASC_NODE":35.3422,"ARG_OF_PERICENTER":86.2667,"MEAN_ANOMALY":291.495,"EPHEMERIS_TYPE":0,"CLASSIFICATION_TYPE":"U","NORAD_CAT_ID":21820,"ELEMENT_SET_NO":999,"REV_AT_EPOCH":48727,"BSTAR":0.00015922751,"MEAN_MOTION_DOT":8.43e-6,"MEAN_MOTION_DDOT":0}]
